FENGYUN 1C DEB          
1 31226U 99025BLG 26072.80480036  .00000574  00000+0  23404-3 0  9996
2 31226  98.3555  73.5160 0125644 288.5702  70.1866 14.26887578633520
FENGYUN 1C DEB          
1 31228U 99025BLJ 26073.29031298  .00001298  00000+0  43603-3 0  9991
2 31228  98.8693 352.9161 0077506 175.4785 310.2507 14.37291742988845
FENGYUN 1C DEB          
1 31229U 99025BLK 26074.19495447  .00002874  00000+0  12887-2 0  9992
2 31229  98.8583 154.9885 0052420  35.1742 325.2877 14.22546298973988
FENGYUN 1C DEB          
1 31231U 99025BLM 26074.23857730  .00040341  00000+0  44625-2 0  9993
2 31231  98.8648 247.5822 0134875 175.4935 184.7524 14.80770972643871
FENGYUN 1C DEB          
1 31234U 99025BLQ 26069.79962658  .00000501  00000+0  31187-3 0  9991
2 31234  98.7920  66.4855 0073448 339.9185  19.9098 14.08116823739591
FENGYUN 1C DEB          
1 31235U 99025BLR 26074.20834253  .00010923  00000+0  42966-2 0  9998
2 31235  98.4651 223.5718 0172178 115.6244 246.2836 14.21584149644796
FENGYUN 1C DEB          
1 31236U 99025BLS 26071.32662298  .00003633  00000+0  21528-2 0  9998
2 31236  98.5442  23.9865 0305799 160.8485 200.4472 13.87325402622663
FENGYUN 1C DEB          
1 31237U 99025BLT 26074.26942296  .00001474  00000+0  54346-3 0  9990
2 31237  98.4588  75.7311 0089966  74.7859 286.3251 14.31701359985904
FENGYUN 1C DEB          
1 31239U 99025BLV 26073.94926337  .00000651  00000+0  38939-3 0  9990
2 31239  98.7655  71.4673 0048636 298.8479  81.0574 14.10008397973111
FENGYUN 1C DEB          
1 31241U 99025BLX 26071.39327031  .00001859  00000+0  60342-3 0  9990
2 31241  99.2448 230.0633 0065247 279.2769  80.1041 14.39041880989808
FENGYUN 1C DEB          
1 31243U 99025BLZ 26072.06837832  .00001163  00000+0  70392-3 0  9996
2 31243  98.7394 114.4248 0063897 273.1329  86.2530 14.07423925705787
FENGYUN 1C DEB          
1 31244U 99025BMA 26073.40628684  .00000782  00000+0  47853-3 0  9991
2 31244  99.0174 141.7715 0101128 279.4493  79.5255 14.06399119589281
FENGYUN 1C DEB          
1 31247U 99025BMD 26073.45261323  .00000822  00000+0  52831-3 0  9999
2 31247  99.3595 329.5930 0057797 170.3892   7.5048 14.05363578968093
FENGYUN 1C DEB          
1 31248U 99025BME 26073.64672226  .00000727  00000+0  56451-3 0  9995
2 31248  99.2494 136.1016 0110843  63.2355  91.8416 13.92946629961035
FENGYUN 1C DEB          
1 31250U 99025BMG 26072.54210454  .00001220  00000+0  74301-3 0  9990
2 31250  98.3867 280.5659 0134067  40.8543 320.2582 14.03435541967918
FENGYUN 1C DEB          
1 31252U 99025BMJ 26074.29334116  .00001402  00000+0  35084-3 0  9995
2 31252  98.3111  95.5829 0211226 253.3311 104.4596 14.40556342985395
