[{"OBJECT_NAME":"FENGYUN 1C DEB","OBJECT_ID":"1999-025BLG","EPOCH":"2026-03-13T19:18:54.751104","MEAN_MOTION":14.26887578,"ECCENTRICITY":0.01256449,"INCLINATION":98.3555,"RA_OF_ASC_NODE":73.516,"ARG_OF_PERICENTER":288.5702,"MEAN_ANOMALY":70.1866,"EPHEMERIS_TYPE":0,"CLASSIFICATION_TYPE":"U","NORAD_CAT_ID":31226,"ELEMENT_SET_NO":999,"REV_AT_EPOCH":63352,"BSTAR":0.00023403632,"MEAN_MOTION_DOT":5.74e-6,"MEAN_MOTION_DDOT":0},{"OBJECT_NAME":"FENGYUN 1C DEB","OBJECT_ID":"1999-025BLJ","EPOCH":"2026-03-14T06:58:03.041472","MEAN_MOTION":14.37291742,"ECCENTRICITY":0.00775065,"INCLINATION":98.8693,"RA_OF_ASC_NODE":352.9161,"ARG_OF_PERICENTER":175.4785,"MEAN_ANOMALY":310.2507,"EPHEMERIS_TYPE":0,"CLASSIFICATION_TYPE":"U","NORAD_CAT_ID":31228,"ELEMENT_SET_NO":999,"REV_AT_EPOCH":98884,"BSTAR":0.00043602868,"MEAN_MOTION_DOT":1.298e-5,"MEAN_MOTION_DDOT":0},{"OBJECT_NAME":"FENGYUN 1C DEB","OBJECT_ID":"1999-025BLK","EPOCH":"2026-03-15T04:40:44.066208","MEAN_MOTION":14.22546298,"ECCENTRICITY":0.00524205,"INCLINATION":98.8583,"RA_OF_ASC_NODE":154.9885,"ARG_OF_PERICENTER":35.1742,"MEAN_ANOMALY":325.2877,"EPHEMERIS_TYPE":0,"CLASSIFICATION_TYPE":"U","NORAD_CAT_ID":31229,"ELEMENT_SET_NO":999,"REV_AT_EPOCH":97398,"BSTAR":0.0012887116,"MEAN_MOTION_DOT":2.874e-5,"MEAN_MOTION_DDOT":0},{"OBJECT_NAME":"FENGYUN 1C DEB","OBJECT_ID":"1999-025BLM","EPOCH":"2026-03-15T05:43:33.078720","MEAN_MOTION":14.80770972,"ECCENTRICITY":0.01348759,"INCLINATION":98.8648,"RA_OF_ASC_NODE":247.5822,"ARG_OF_PERICENTER":175.4935,"MEAN_ANOMALY":184.7524,"EPHEMERIS_TYPE":0,"CLASSIFICATION_TYPE":"U","NORAD_CAT_ID":31231,"ELEMENT_SET_NO":999,"REV_AT_EPOCH":64387,"BSTAR":0.0044625021,"MEAN_MOTION_DOT":0.00040341,"MEAN_MOTION_DDOT":0},{"OBJECT_NAME":"FENGYUN 1C DEB","OBJECT_ID":"1999-025BLQ","EPOCH":"2026-03-10T19:11:27.736512","MEAN_MOTION":14.08116823,"ECCENTRICITY":0.00734485,"INCLINATION":98.792,"RA_OF_ASC_NODE":66.4855,"ARG_OF_PERICENTER":339.9185,"MEAN_ANOMALY":19.9098,"EPHEMERIS_TYPE":0,"CLASSIFICATION_TYPE":"U","NORAD_CAT_ID":31234,"ELEMENT_SET_NO":999,"REV_AT_EPOCH":73959,"BSTAR":0.00031186656,"MEAN_MOTION_DOT":5.01e-6,"MEAN_MOTION_DDOT":0},{"OBJECT_NAME":"FENGYUN 1C DEB","OBJECT_ID":"1999-025BLR","EPOCH":"2026-03-15T05:00:00.794592","MEAN_MOTION":14.21584149,"ECCENTRICITY":0.01721783,"INCLINATION":98.4651,"RA_OF_ASC_NODE":223.5718,"ARG_OF_PERICENTER":115.6244,"MEAN_ANOMALY":246.2836,"EPHEMERIS_TYPE":0,"CLASSIFICATION_TYPE":"U","NORAD_CAT_ID":31235,"ELEMENT_SET_NO":999,"REV_AT_EPOCH":64479,"BSTAR":0.0042966024,"MEAN_MOTION_DOT":0.00010923,"MEAN_MOTION_DDOT":0},{"OBJECT_NAME":"FENGYUN 1C DEB","OBJECT_ID":"1999-025BLS","EPOCH":"2026-03-12T07:50:20.225472","MEAN_MOTION":13.87325402,"ECCENTRICITY":0.0305799,"INCLINATION":98.5442,"RA_OF_ASC_NODE":23.9865,"ARG_OF_PERICENTER":160.8485,"MEAN_ANOMALY":200.4472,"EPHEMERIS_TYPE":0,"CLASSIFICATION_TYPE":"U","NORAD_CAT_ID":31236,"ELEMENT_SET_NO":999,"REV_AT_EPOCH":62266,"BSTAR":0.0021528,"MEAN_MOTION_DOT":3.633e-5,"MEAN_MOTION_DDOT":0},{"OBJECT_NAME":"FENGYUN 1C DEB","OBJECT_ID":"1999-025BLT","EPOCH":"2026-03-15T06:27:58.143744","MEAN_MOTION":14.31701359,"ECCENTRICITY":0.00899662,"INCLINATION":98.4588,"RA_OF_ASC_NODE":75.7311,"ARG_OF_PERICENTER":74.7859,"MEAN_ANOMALY":286.3251,"EPHEMERIS_TYPE":0,"CLASSIFICATION_TYPE":"U","NORAD_CAT_ID":31237,"ELEMENT_SET_NO":999,"REV_AT_EPOCH":98590,"BSTAR":0.00054346496,"MEAN_MOTION_DOT":1.474e-5,"MEAN_MOTION_DDOT":0},{"OBJECT_NAME":"FENGYUN 1C DEB","OBJECT_ID":"1999-025BLV","EPOCH":"2026-03-14T22:46:56.355168","MEAN_MOTION":14.10008397,"ECCENTRICITY":0.00486366,"INCLINATION":98.7655,"RA_OF_ASC_NODE":71.4673,"ARG_OF_PERICENTER":298.8479,"MEAN_ANOMALY":81.0574,"EPHEMERIS_TYPE":0,"CLASSIFICATION_TYPE":"U","NORAD_CAT_ID":31239,"ELEMENT_SET_NO":999,"REV_AT_EPOCH":97311,"BSTAR":0.00038939249,"MEAN_MOTION_DOT":6.51e-6,"MEAN_MOTION_DDOT":0},{"OBJECT_NAME":"FENGYUN 1C DEB","OBJECT_ID":"1999-025BLX","EPOCH":"2026-03-12T09:26:18.554784","MEAN_MOTION":14.3904188,"ECCENTRICITY":0.0065247,"INCLINATION":99.2448,"RA_OF_ASC_NODE":230.0633,"ARG_OF_PERICENTER":279.2769,"MEAN_ANOMALY":80.1041,"EPHEMERIS_TYPE":0,"CLASSIFICATION_TYPE":"U","NORAD_CAT_ID":31241,"ELEMENT_SET_NO":999,"REV_AT_EPOCH":98980,"BSTAR":0.00060342,"MEAN_MOTION_DOT":1.859e-5,"MEAN_MOTION_DDOT":0},{"OBJECT_NAME":"FENGYUN 1C DEB","OBJECT_ID":"1999-025BLZ","EPOCH":"2026-03-13T01:38:27.886848","MEAN_MOTION":14.07423925,"ECCENTRICITY":0.00638971,"INCLINATION":98.7394,"RA_OF_ASC_NODE":114.4248,"ARG_OF_PERICENTER":273.1329,"MEAN_ANOMALY":86.253,"EPHEMERIS_TYPE":0,"CLASSIFICATION_TYPE":"U","NORAD_CAT_ID":31243,"ELEMENT_SET_NO":999,"REV_AT_EPOCH":70578,"BSTAR":0.00070391845,"MEAN_MOTION_DOT":1.163e-5,"MEAN_MOTION_DDOT":0},{"OBJECT_NAME":"FENGYUN 1C DEB","OBJECT_ID":"1999-025BMA","EPOCH":"2026-03-14T09:45:03.182976","MEAN_MOTION":14.06399119,"ECCENTRICITY":0.01011286,"INCLINATION":99.0174,"RA_OF_ASC_NODE":141.7715,"ARG_OF_PERICENTER":279.4493,"MEAN_ANOMALY":79.5255,"EPHEMERIS_TYPE":0,"CLASSIFICATION_TYPE":"U","NORAD_CAT_ID":31244,"ELEMENT_SET_NO":999,"REV_AT_EPOCH":58928,"BSTAR":0.00047852838,"MEAN_MOTION_DOT":7.82e-6,"MEAN_MOTION_DDOT":0},{"OBJECT_NAME":"FENGYUN 1C DEB","OBJECT_ID":"1999-025BMD","EPOCH":"2026-03-14T10:51:45.783072","MEAN_MOTION":14.05363578,"ECCENTRICITY":0.0057797,"INCLINATION":99.3595,"RA_OF_ASC_NODE":329.593,"ARG_OF_PERICENTER":170.3892,"MEAN_ANOMALY":7.5048,"EPHEMERIS_TYPE":0,"CLASSIFICATION_TYPE":"U","NORAD_CAT_ID":31247,"ELEMENT_SET_NO":999,"REV_AT_EPOCH":96809,"BSTAR":0.00052831056,"MEAN_MOTION_DOT":8.22e-6,"MEAN_MOTION_DDOT":0},{"OBJECT_NAME":"FENGYUN 1C DEB","OBJECT_ID":"1999-025BME","EPOCH":"2026-03-14T15:31:16.803264","MEAN_MOTION":13.92946629,"ECCENTRICITY":0.01108435,"INCLINATION":99.2494,"RA_OF_ASC_NODE":136.1016,"ARG_OF_PERICENTER":63.2355,"MEAN_ANOMALY":91.8416,"EPHEMERIS_TYPE":0,"CLASSIFICATION_TYPE":"U","NORAD_CAT_ID":31248,"ELEMENT_SET_NO":999,"REV_AT_EPOCH":96103,"BSTAR":0.00056451071,"MEAN_MOTION_DOT":7.27e-6,"MEAN_MOTION_DDOT":0},{"OBJECT_NAME":"FENGYUN 1C DEB","OBJECT_ID":"1999-025BMG","EPOCH":"2026-03-13T13:00:37.832256","MEAN_MOTION":14.03435541,"ECCENTRICITY":0.0134067,"INCLINATION":98.3867,"RA_OF_ASC_NODE":280.5659,"ARG_OF_PERICENTER":40.8543,"MEAN_ANOMALY":320.2582,"EPHEMERIS_TYPE":0,"CLASSIFICATION_TYPE":"U","NORAD_CAT_ID":31250,"ELEMENT_SET_NO":999,"REV_AT_EPOCH":96791,"BSTAR":0.0007430147,"MEAN_MOTION_DOT":1.22e-5,"MEAN_MOTION_DDOT":0},{"OBJECT_NAME":"FENGYUN 1C DEB","OBJECT_ID":"1999-025BMJ","EPOCH":"2026-03-15T07:02:24.676224","MEAN_MOTION":14.40556342,"ECCENTRICITY":0.02112268,"INCLINATION":98.3111,"RA_OF_ASC_NODE":95.5829,"ARG_OF_PERICENTER":253.3311,"MEAN_ANOMALY":104.4596,"EPHEMERIS_TYPE":0,"CLASSIFICATION_TYPE":"U","NORAD_CAT_ID":31252,"ELEMENT_SET_NO":999,"REV_AT_EPOCH":98539,"BSTAR":0.00035084491,"MEAN_MOTION_DOT":1.402e-5,"MEAN_MOTION_DDOT":0}]
